STARLINK-1209_new
1 15206C 20012AE  21326.14321985  .00009291  00000-0  62259-3 0  3261
2 15206  53.0534 208.1089 0001895  74.2961 140.1635 15.06382265    18
STARLINK-1209_old
1 25206C 20012AE  21325.11670928 -.00003511  00000-0 -23520-3 0  3259
2 25206  53.0537 212.7170 0001978  73.1657 331.3854 15.06409247    12
